{
  "type": "FeatureCollection",
  "features": [
    {
      "type": "Feature",
      "geometry": null,
      "properties": {
        "name": "Amphitheatre",
        "related_artefacts": [
          "https://digital.library.leeds.ac.uk/15936/",
          "https://digital.library.leeds.ac.uk/15959/"
        ]
      }
    },
    {
      "type": "Feature",
      "geometry": null,
      "properties": {
        "name": "Chimney Point",
        "related_artefacts": [
          "https://digital.library.leeds.ac.uk/15945/",
          "https://digital.library.leeds.ac.uk/15954/"
        ]
      }
    },
    {
      "type": "Feature",
      "geometry": null,
      "properties": {
        "name": "Chimney Stack",
        "related_artefacts": [
          "https://digital.library.leeds.ac.uk/15956/",
          "https://digital.library.leeds.ac.uk/15937/",
          "https://digital.library.leeds.ac.uk/15961/",
          "https://digital.library.leeds.ac.uk/15958/",
          "https://digital.library.leeds.ac.uk/15957/"
        ]
      }
    },
    {
      "type": "Feature",
      "geometry": null,
      "properties": {
        "name": "Diamond",
        "related_artefacts": [
          "https://digital.library.leeds.ac.uk/15930/"
        ]
      }
    },
    {
      "type": "Feature",
      "geometry": null,
      "properties": {
        "name": "Gateway",
        "related_artefacts": [
          "https://digital.library.leeds.ac.uk/15935/"
        ]
      }
    },
    {
      "type": "Feature",
      "geometry": null,
      "properties": {
        "name": "Giant's Well",
        "related_artefacts": [
          "https://digital.library.leeds.ac.uk/15947/"
        ]
      }
    },
    {
      "type": "Feature",
      "geometry": null,
      "properties": {
        "name": "Giants Eye",
        "related_artefacts": [
          "https://digital.library.leeds.ac.uk/15953/"
        ]
      }
    },
    {
      "type": "Feature",
      "geometry": null,
      "properties": {
        "name": "Grand Causeway",
        "related_artefacts": [
          "https://digital.library.leeds.ac.uk/15933/",
          "https://digital.library.leeds.ac.uk/15941/",
          "https://digital.library.leeds.ac.uk/15944/"
        ]
      }
    },
    {
      "type": "Feature",
      "geometry": null,
      "properties": {
        "name": "Honeycomb",
        "related_artefacts": [
          "https://digital.library.leeds.ac.uk/15925/",
          "https://digital.library.leeds.ac.uk/15940/"
        ]
      }
    },
    {
      "type": "Feature",
      "geometry": null,
      "properties": {
        "name": "Howes Back",
        "related_artefacts": [
          "https://digital.library.leeds.ac.uk/15955/"
        ]
      }
    },
    {
      "type": "Feature",
      "geometry": null,
      "properties": {
        "name": "Lady's Fan",
        "related_artefacts": [
          "https://digital.library.leeds.ac.uk/15931/"
        ]
      }
    },
    {
      "type": "Feature",
      "geometry": null,
      "properties": {
        "name": "Lea Gull Skerry",
        "related_artefacts": [
          "https://digital.library.leeds.ac.uk/15938/"
        ]
      }
    },
    {
      "type": "Feature",
      "geometry": null,
      "properties": {
        "name": "Loom",
        "related_artefacts": [
          "https://digital.library.leeds.ac.uk/15932/",
          "https://digital.library.leeds.ac.uk/15934/"
        ]
      }
    },
    {
      "type": "Feature",
      "geometry": null,
      "properties": {
        "name": "Lord Antrim's Parlour",
        "related_artefacts": [
          "https://digital.library.leeds.ac.uk/15929/"
        ]
      }
    },
    {
      "type": "Feature",
      "geometry": null,
      "properties": {
        "name": "Organ",
        "related_artefacts": [
          "https://digital.library.leeds.ac.uk/15939/"
        ]
      }
    },
    {
      "type": "Feature",
      "geometry": null,
      "properties": {
        "name": "Portnaboe Trap Dyke",
        "related_artefacts": [
          "https://digital.library.leeds.ac.uk/15948/",
          "https://digital.library.leeds.ac.uk/15949/"
        ]
      }
    },
    {
      "type": "Feature",
      "geometry": null,
      "properties": {
        "name": "Portnaboe",
        "related_artefacts": [
          "https://digital.library.leeds.ac.uk/15962/"
        ]
      }
    },
    {
      "type": "Feature",
      "geometry": null,
      "properties": {
        "name": "Stookaus",
        "related_artefacts": [
          "https://digital.library.leeds.ac.uk/15946/",
          "https://digital.library.leeds.ac.uk/15963/"
        ]
      }
    },
    {
      "type": "Feature",
      "geometry": null,
      "properties": {
        "name": "Wishing Chair",
        "related_artefacts": [
          "https://digital.library.leeds.ac.uk/15926/",
          "https://digital.library.leeds.ac.uk/20356/"
        ]
      }
    },
    {
      "type": "Feature",
      "geometry": null,
      "properties": {
        "name": "Hamilton's Seat",
        "related_artefacts": [
          "https://digital.library.leeds.ac.uk/15950/",
          "https://digital.library.leeds.ac.uk/15951/",
          "https://digital.library.leeds.ac.uk/15952/"
        ]
      }
    }
  ]
}